store_location_key,region,province,city,postal_code,banner,store_num
1794,"NA","ONTARIO","LONDON","NA","dc35b695",1794
42,"NA","ONTARIO","TORONTO","NA","dc35b695",42
7218,"NA","ALBERTA","SLAVE LAKE","NA","6e36648",7218
7196,"NA","BRITISH COLUMBIA","VICTORIA","NA","6e36648",7196
7167,"NA","BRITISH COLUMBIA","SURREY","NA","6e36648",7167
7518,"NA","ALBERTA","STONEWALL","NA","6e36648",7518
2022,"NA","ONTARIO","OTTAWA","NA","dc35b695",2022
8611,"NA","ALBERTA","DRUMHELLER","NA","235704e1",8611
5023,"NA","ONTARIO","BARRIE","NA","b2e9116e",5023
8101,"NA","ONTARIO","LONDON","NA","6e36648",8101
7202,"NA","ALBERTA","WHITECOURT","NA","6e36648",7202
1388,"NA","ONTARIO","BARRIE","NA","dc35b695",1388
7262,"NA","ALBERTA","CALGARY","NA","6e36648",7262
7315,"NA","SASKATCHEWAN","MOOSOMIN","NA","6e36648",7315
8134,"NA","ONTARIO","OTTAWA","NA","6e36648",8134
18,"NA","ONTARIO","TORONTO","NA","dc35b695",18
8544,"NA","ONTARIO","LONDON","NA","235704e1",8544
7263,"NA","ALBERTA","CALGARY","NA","6e36648",7263
9607,"NA","ONTARIO","KINGSTON","NA","6e36648",9607
2340,"NA","ONTARIO","ORANGEVILLE","NA","dc35b695",2340
4822,"NA","MANITOBA","WINNIPEG","NA","dc35b695",4822
7181,"NA","BRITISH COLUMBIA","NANAIMO","NA","6e36648",7181
7158,"NA","BRITISH COLUMBIA","VANCOUVER","NA","6e36648",7158
646,"NA","ONTARIO","PEMBROKE","NA","dc35b695",646
828,"NA","ONTARIO","NORTH YORK","NA","dc35b695",828
3863,"NA","ONTARIO","REXDALE","NA","dc35b695",3863
7198,"NA","BRITISH COLUMBIA","VICTORIA","NA","6e36648",7198
7130,"NA","BRITISH COLUMBIA","KELOWNA","NA","6e36648",7130
7211,"NA","ALBERTA","SWAN HILLS","NA","6e36648",7211
4815,"NA","MANITOBA","WINNIPEG","NA","dc35b695",4815
7508,"NA","ALBERTA","SW CALGARY","NA","6e36648",7508
7182,"NA","BRITISH COLUMBIA","VANCOUVER","NA","6e36648",7182
1297,"NA","ONTARIO","WOODBRIDGE","NA","dc35b695",1297
1131,"NA","ONTARIO","KINGSTON","NA","dc35b695",1131
760,"NA","ONTARIO","WILLOWDALE","NA","dc35b695",760
9993,"NA","BRITISH COLUMBIA","BC","NA","6e36648",9993
7258,"NA","ALBERTA","CALGARY","NA","6e36648",7258
7293,"NA","ALBERTA","SHERWOOD PARK","NA","6e36648",7293
133,"NA","ONTARIO","TORONTO","NA","dc35b695",133
7289,"NA","ALBERTA","CALGARY","NA","6e36648",7289
7404,"NA","MANITOBA","WINNIPEG","NA","6e36648",7404
2378,"NA","ONTARIO","MISSISSAUGA","NA","dc35b695",2378
331,"NA","ONTARIO","CHATHAM","NA","dc35b695",331
8624,"NA","NEW BRUNSWICK","CARAQUET","NA","235704e1",8624
5103,"NA","ONTARIO","EXETER","NA","6e36648",5103
9601,"NA","ONTARIO","OSHAWA","NA","6e36648",9601
1438,"NA","ONTARIO","BRAMPTON","NA","dc35b695",1438
4816,"NA","MANITOBA","WINNIPEG","NA","dc35b695",4816
7180,"NA","BRITISH COLUMBIA","LADYSMITH","NA","6e36648",7180
7161,"NA","BRITISH COLUMBIA","MISSION","NA","6e36648",7161
547,"NA","ONTARIO","BRIGHTON","NA","dc35b695",547
4945,"NA","MANITOBA","WINNIPEG","NA","dc35b695",4945
2915,"NA","NEW BRUNSWICK","SAINT JOHN","NA","dc35b695",2915
6930,"NA","ONTARIO","SCARBOROUGH","NA","6e36648",6930
6909,"NA","ONTARIO","SCARBOROUGH","NA","6e36648",6909
7215,"NA","ALBERTA","FORT SASKATCHEWAN","NA","6e36648",7215
3012,"NA","ONTARIO","TORONTO","NA","dc35b695",3012
7309,"NA","SASKATCHEWAN","SHAUNAVON","NA","6e36648",7309
7408,"NA","MANITOBA","WINNIPEG","NA","6e36648",7408
1123,"NA","ONTARIO","HAMILTON","NA","dc35b695",1123
554,"NA","ONTARIO","BRIGHTON","NA","dc35b695",554
8644,"NA","ALBERTA","EDMONTON","NA","235704e1",8644
5107,"NA","ONTARIO","ALYMER","NA","6e36648",5107
7145,"NA","BRITISH COLUMBIA","LANGLEY","NA","6e36648",7145
448,"NA","ONTARIO","CHATHAM","NA","dc35b695",448
2063,"NA","ONTARIO","ETOBICOKE","NA","dc35b695",2063
4960,"NA","MANITOBA","WINNIPEG","NA","dc35b695",4960
7139,"NA","BRITISH COLUMBIA","COLWOOD","NA","6e36648",7139
7195,"NA","BRITISH COLUMBIA","MAPLE RIDGE","NA","6e36648",7195
2220,"NA","ONTARIO","SMITHS FALLS","NA","dc35b695",2220
1693,"NA","ONTARIO","OTTAWA","NA","dc35b695",1693
2250,"NA","ONTARIO","MARKHAM","NA","dc35b695",2250
9303,"NA","BRITISH COLUMBIA","WEST","NA","4d8ba31a",9303
9606,"NA","ONTARIO","HAMILTON","NA","6e36648",9606
1867,"NA","ONTARIO","LONDON","NA","dc35b695",1867
2287,"NA","ONTARIO","TORONTO","NA","dc35b695",2287
7268,"NA","ALBERTA","COCHRANE","NA","6e36648",7268
7193,"NA","BRITISH COLUMBIA","KELOWNA","NA","6e36648",7193
204,"NA","ONTARIO","HAMILTON","NA","dc35b695",204
7512,"NA","ALBERTA","COLEMAN","NA","6e36648",7512
1032,"NA","ONTARIO","LONDON","NA","dc35b695",1032
8554,"NA","ONTARIO","NEWMARKET","NA","235704e1",8554
5028,"NA","ONTARIO","LONDON","NA","b2e9116e",5028
9805,"NA","ALBERTA","CALGARY","NA","6e36648",9805
7506,"NA","ALBERTA","ROCKY MOUNTAIN HOUSE","NA","6e36648",7506
851,"NA","ONTARIO","TORONTO","NA","dc35b695",851
8154,"NA","ONTARIO","TORONTO","NA","6e36648",8154
1354,"NA","ONTARIO","OTTAWA","NA","dc35b695",1354
6939,"NA","ONTARIO","SUDBURY","NA","6e36648",6939
8203,"NA","ONTARIO","BRANTFORD","NA","6e36648",8203
8548,"NA","BRITISH COLUMBIA","ABBOTSFORD","NA","235704e1",8548
8530,"NA","ONTARIO","BARRIE","NA","235704e1",8530
8625,"NA","ALBERTA","EDMONTON","NA","235704e1",8625
2121,"NA","ONTARIO","LINDSAY","NA","dc35b695",2121
6911,"NA","ONTARIO","PETERBOROUGH","NA","6e36648",6911
1479,"NA","ONTARIO","OTTAWA","NA","dc35b695",1479
1495,"NA","ONTARIO","OTTAWA","NA","dc35b695",1495
6905,"NA","ONTARIO","LONGLAC","NA","6e36648",6905
539,"NA","ONTARIO","SMITHS FALLS","NA","dc35b695",539
8533,"NA","MANITOBA","WINNIPEG","NA","235704e1",8533
8620,"NA","ONTARIO","SHERWOOD PARK","NA","235704e1",8620
8608,"NA","ALBERTA","ST. ALBERT","NA","235704e1",8608
7255,"NA","ALBERTA","EDMONTON","NA","6e36648",7255
920,"NA","ONTARIO","TORONTO","NA","dc35b695",920
8145,"NA","ONTARIO","TORONTO","NA","6e36648",8145
422,"NA","ONTARIO","BEAMSVILLE","NA","dc35b695",422
6984,"NA","ONTARIO","VAUGHAN","NA","6e36648",6984
6945,"NA","ONTARIO","NAPANEE","NA","6e36648",6945
8655,"NA","BRITISH COLUMBIA","VICTORIA","NA","235704e1",8655
1115,"NA","ONTARIO","STONEY CREEK","NA","dc35b695",1115
8661,"NA","NEW BRUNSWICK","SHEDIAC","NA","235704e1",8661
7507,"NA","ALBERTA","BEAVERLODGE","NA","6e36648",7507
7214,"NA","ALBERTA","LEDUC","NA","6e36648",7214
7284,"NA","ALBERTA","CALGARY","NA","6e36648",7284
7171,"NA","BRITISH COLUMBIA","WHITEROCK","NA","6e36648",7171
2444,"NA","ONTARIO","OAKVILLE","NA","dc35b695",2444
3913,"NA","NOVA SCOTIA","BRIDGEWATER","NA","dc35b695",3913
513,"NA","ONTARIO","SMITHS FALLS","NA","dc35b695",513
9995,"NA","SASKATCHEWAN","SASK","NA","6e36648",9995
6940,"NA","ONTARIO","TORONTO","NA","6e36648",6940
1891,"NA","ONTARIO","WALLACEBURG","NA","dc35b695",1891
1339,"NA","ONTARIO","ERIN","NA","dc35b695",1339
4817,"NA","MANITOBA","WINNIPEG","NA","dc35b695",4817
7104,"NA","BRITISH COLUMBIA","PORT HARDY","NA","6e36648",7104
7116,"NA","BRITISH COLUMBIA","WHISTLER","NA","6e36648",7116
521,"NA","ONTARIO","SMITHS FALLS","NA","dc35b695",521
802,"NA","ONTARIO","TORONTO","NA","dc35b695",802
2196,"NA","ONTARIO","CALEDONIA","NA","dc35b695",2196
9103,"NA","BRITISH COLUMBIA","WEST","NA","4d8ba31a",9103
8165,"NA","ONTARIO","TORONTO","NA","6e36648",8165
1875,"NA","ONTARIO","LONDON","NA","dc35b695",1875
1321,"NA","ONTARIO","MISSISSAUGA","NA","dc35b695",1321
4813,"NA","MANITOBA","WINNIPEG","NA","dc35b695",4813
7123,"NA","BRITISH COLUMBIA","VICTORIA","NA","6e36648",7123
7192,"NA","BRITISH COLUMBIA","CHILLIWACK","NA","6e36648",7192
1677,"NA","ONTARIO","BROCKVILLE","NA","dc35b695",1677
4952,"NA","MANITOBA","WINNIPEG","NA","dc35b695",4952
893,"NA","ONTARIO","TORONTO","NA","dc35b695",893
9102,"NA","ONTARIO","TORONTO","NA","4d8ba31a",9102
6902,"NA","ONTARIO","SUDBURY","NA","6e36648",6902
7216,"NA","ALBERTA","FORT SASKATCHEWAN","NA","6e36648",7216
7208,"NA","ALBERTA","BARRHEAD","NA","6e36648",7208
7283,"NA","ALBERTA","CALGARY","NA","6e36648",7283
7406,"NA","MANITOBA","ALTONA","NA","6e36648",7406
2071,"NA","ONTARIO","MISSISSAUGA","NA","dc35b695",2071
1511,"NA","ONTARIO","OTTAWA","NA","dc35b695",1511
8519,"NA","SASKATCHEWAN","SASKATOON","NA","235704e1",8519
6908,"NA","ONTARIO","NEPEAN","NA","6e36648",6908
7112,"NA","BRITISH COLUMBIA","VANCOUVER","NA","6e36648",7112
7206,"NA","ALBERTA","VALLEYVIEW","NA","6e36648",7206
729,"NA","ONTARIO","NORTH YORK","NA","dc35b695",729
7274,"NA","ALBERTA","MEDICINE HAT","NA","6e36648",7274
7302,"NA","SASKATCHEWAN","KAMSACK","NA","6e36648",7302
8185,"NA","ONTARIO","ORLEANS","NA","6e36648",8185
265,"NA","ONTARIO","TORONTO","NA","dc35b695",265
8552,"NA","ONTARIO","HAMILTON","NA","235704e1",8552
5104,"NA","ONTARIO","KINGSVILLE","NA","6e36648",5104
6975,"NA","ONTARIO","SAULT STE. MARIE","NA","6e36648",6975
1795,"NA","ONTARIO","LONDON","NA","dc35b695",1795
273,"NA","ONTARIO","TORONTO","NA","dc35b695",273
7234,"NA","ALBERTA","SHERWOOD PARK","NA","6e36648",7234
7121,"NA","BRITISH COLUMBIA","VICTORIA","NA","6e36648",7121
7149,"NA","BRITISH COLUMBIA","VANCOUVER","NA","6e36648",7149
7257,"NA","ALBERTA","EDMONTON","NA","6e36648",7257
2147,"NA","ONTARIO","MISSISSAUGA","NA","dc35b695",2147
8635,"NA","ONTARIO","OTTAWA","NA","235704e1",8635
5003,"NA","ONTARIO","RICHMOND HILL","NA","b2e9116e",5003
9807,"NA","ALBERTA","EDMONTON","NA","6e36648",9807
7221,"NA","ALBERTA","SYLVAN LAKE","NA","6e36648",7221
257,"NA","ONTARIO","TORONTO","NA","dc35b695",257
6949,"NA","ONTARIO","BRAMPTON","NA","6e36648",6949
8189,"NA","ONTARIO","OTTAWA","NA","dc35b695",8189
6927,"NA","ONTARIO","SUDBURY","NA","6e36648",6927
8184,"NA","ONTARIO","ST CATHERINES","NA","6e36648",8184
8516,"NA","BRITISH COLUMBIA","VANCOUVER","NA","235704e1",8516
8667,"NA","NEW BRUNSWICK","SUSSEX","NA","235704e1",8667
8589,"NA","ALBERTA","EDMONTON","NA","235704e1",8589
968,"NA","ONTARIO","STRATFORD","NA","dc35b695",968
2386,"NA","ONTARIO","BRAMPTON","NA","dc35b695",2386
4887,"NA","MANITOBA","WINNIPEG","NA","dc35b695",4887
7128,"NA","BRITISH COLUMBIA","VICTORIA","NA","6e36648",7128
7170,"NA","BRITISH COLUMBIA","WHITEROCK","NA","6e36648",7170
7159,"NA","BRITISH COLUMBIA","VANCOUVER","NA","6e36648",7159
1214,"NA","ONTARIO","GLOUCESTER","NA","dc35b695",1214
4879,"NA","MANITOBA","WINNIPEG","NA","dc35b695",4879
5025,"NA","ONTARIO","SUDBURY","NA","b2e9116e",5025
6938,"NA","ONTARIO","BRAMPTON","NA","6e36648",6938
166,"NA","ONTARIO","HUNTSVILLE","NA","dc35b695",166
6982,"NA","ONTARIO","TORONTO","NA","6e36648",6982
6931,"NA","ONTARIO","GRAVENHURST","NA","6e36648",6931
95,"NA","ONTARIO","ORLEANS","NA","dc35b695",95
6973,"NA","ONTARIO","SAULT STE. MARIE","NA","6e36648",6973
2253,"NA","ONTARIO","BELLEVILLE","NA","dc35b695",2253
8553,"NA","ALBERTA","BROOKS","NA","235704e1",8553
8660,"NA","ALBERTA","CALGARY","NA","235704e1",8660
8632,"NA","PRINCE EDWARD ISLAND","O'LEARY","NA","235704e1",8632
711,"NA","ONTARIO","SCARBOROUGH","NA","dc35b695",711
8150,"NA","ONTARIO","CHATHAM","NA","6e36648",8150
1685,"NA","ONTARIO","PORT ELGIN","NA","dc35b695",1685
6953,"NA","ONTARIO","SIOUX LOOKOUT","NA","6e36648",6953
6954,"NA","ONTARIO","AZILDA","NA","6e36648",6954
7310,"NA","SASKATCHEWAN","EASTEND","NA","6e36648",7310
8623,"NA","ONTARIO","BURLINGTON","NA","235704e1",8623
8561,"NA","ALBERTA","VEGREVILLE","NA","235704e1",8561
8534,"NA","ONTARIO","TORONTO","NA","235704e1",8534
7515,"NA","ALBERTA","CALGARY","NA","6e36648",7515
6921,"NA","ONTARIO","SCARBOROUGH","NA","6e36648",6921
6993,"NA","ONTARIO","TORONTO","NA","6e36648",6993
1156,"NA","ONTARIO","GLOUCESTER","NA","dc35b695",1156
6936,"NA","ONTARIO","NIPIGON","NA","6e36648",6936
1206,"NA","ONTARIO","ALMONTE","NA","dc35b695",1206
8609,"NA","ONTARIO","OAKVILLE","NA","235704e1",8609
8567,"NA","ALBERTA","SPRUCE GROVE","NA","235704e1",8567
8656,"NA","ONTARIO","GRIMSBY","NA","235704e1",8656
1537,"NA","ONTARIO","SUDBURY","NA","dc35b695",1537
299,"NA","ONTARIO","TORONTO","NA","dc35b695",299
7285,"NA","ALBERTA","CALGARY","NA","6e36648",7285
7122,"NA","BRITISH COLUMBIA","KAMLOOPS","NA","6e36648",7122
1651,"NA","ONTARIO","FORT ERIE","NA","dc35b695",1651
7305,"NA","SASKATCHEWAN","SASKATOON","NA","6e36648",7305
4818,"NA","MANITOBA","WINNIPEG","NA","dc35b695",4818
8602,"NA","ALBERTA","EDMONTON","NA","235704e1",8602
9403,"NA","BRITISH COLUMBIA","WEST","NA","4d8ba31a",9403
1503,"NA","ONTARIO","OSHAWA","NA","dc35b695",1503
836,"NA","ONTARIO","TORONTO","NA","dc35b695",836
7287,"NA","ALBERTA","CALGARY","NA","6e36648",7287
6959,"NA","ONTARIO","BARRIE","NA","6e36648",6959
1750,"NA","ONTARIO","PARIS","NA","dc35b695",1750
7227,"NA","ALBERTA","SPRUCE GROVE","NA","6e36648",7227
3004,"NA","ONTARIO","TORONTO","NA","dc35b695",3004
8528,"NA","ALBERTA","MEDICINE HAT","NA","235704e1",8528
9502,"NA","ONTARIO","TORONTO","NA","4d8ba31a",9502
1909,"NA","ONTARIO","AMHERSTBURG","NA","dc35b695",1909
119,"NA","ONTARIO","TORONTO","NA","dc35b695",119
7236,"NA","ALBERTA","EDMONTON","NA","6e36648",7236
7133,"NA","BRITISH COLUMBIA","VICTORIA","NA","6e36648",7133
1560,"NA","ONTARIO","STONEY CREEK","NA","dc35b695",1560
7203,"NA","ALBERTA","WHITECOURT","NA","6e36648",7203
4853,"NA","MANITOBA","WINNIPEG","NA","dc35b695",4853
8514,"NA","ALBERTA","EDMONTON","NA","235704e1",8514
5006,"NA","ONTARIO","PICKERING","NA","b2e9116e",5006
9801,"NA","ALBERTA","EDMONTON","NA","6e36648",9801
1842,"NA","ONTARIO","ACTON","NA","dc35b695",1842
4846,"NA","MANITOBA","WINNIPEG","NA","dc35b695",4846
7177,"NA","BRITISH COLUMBIA","BRENTWOOD BAY","NA","6e36648",7177
7108,"NA","BRITISH COLUMBIA","HOUSTON","NA","6e36648",7108
1529,"NA","ONTARIO","KINGSTON","NA","dc35b695",1529
141,"NA","ONTARIO","TORONTO","NA","dc35b695",141
3855,"NA","ONTARIO","TORONTO","NA","dc35b695",3855
5111,"NA","BRITISH COLUMBIA","SECHELT","NA","6e36648",5111
7150,"NA","BRITISH COLUMBIA","BURNABY","NA","6e36648",7150
7504,"NA","ALBERTA","EDMONTON","NA","6e36648",7504
4819,"NA","MANITOBA","WINNIPEG","NA","dc35b695",4819
7228,"NA","ALBERTA","CALGARY","NA","6e36648",7228
7194,"NA","BRITISH COLUMBIA","CHILLIWACK","NA","6e36648",7194
2100,"NA","ONTARIO","MISSISSAUGA","NA","dc35b695",2100
2030,"NA","ONTARIO","SCARBOROUGH","NA","dc35b695",2030
1198,"NA","ONTARIO","SARNIA","NA","dc35b695",1198
6903,"NA","ONTARIO","GLOUCESTER","NA","6e36648",6903
9609,"NA","ONTARIO","SCARBOROUGH","NA","6e36648",9609
7209,"NA","ALBERTA","HIGH PRAIRIE","NA","6e36648",7209
4854,"NA","MANITOBA","WINNIPEG","NA","dc35b695",4854
7225,"NA","ALBERTA","BANFF","NA","6e36648",7225
7172,"NA","BRITISH COLUMBIA","VICTORIA","NA","6e36648",7172
1404,"NA","ONTARIO","HAMILTON","NA","dc35b695",1404
75,"NA","ONTARIO","SCARBOROUGH","NA","dc35b695",75
1818,"NA","ONTARIO","HAMILTON","NA","dc35b695",1818
9994,"NA","ONTARIO","TORONTO","NA","6e36648",9994
8168,"NA","ONTARIO","TORONTO","NA","6e36648",8168
7205,"NA","ALBERTA","WESTLOCK","NA","6e36648",7205
4814,"NA","MANITOBA","WINNIPEG","NA","dc35b695",4814
7292,"NA","ALBERTA","CALGARY","NA","6e36648",7292
7153,"NA","BRITISH COLUMBIA","RICHMOND","NA","6e36648",7153
3756,"NA","ONTARIO","BRAMPTON","NA","dc35b695",3756
59,"NA","ONTARIO","TORONTO","NA","dc35b695",59
1412,"NA","ONTARIO","BRANTFORD","NA","dc35b695",1412
6922,"NA","ONTARIO","OAKVILLE","NA","6e36648",6922
7277,"NA","ALBERTA","CALGARY","NA","6e36648",7277
281,"NA","ONTARIO","BRACEBRIDGE","NA","dc35b695",281
745,"NA","ONTARIO","TORONTO","NA","dc35b695",745
7259,"NA","ALBERTA","CALGARY","NA","6e36648",7259
6966,"NA","ONTARIO","NEWMARKET","NA","6e36648",6966
202,"NA","ONTARIO","HAMILTON","NA","dc35b695",202
7303,"NA","SASKATCHEWAN","SASKATOON","NA","6e36648",7303
1792,"NA","ONTARIO","LONDON","NA","dc35b695",1792
8524,"NA","ONTARIO","DOWNSVIEW","NA","235704e1",8524
9401,"NA","NOVA SCOTIA","ATLANTIC","NA","4d8ba31a",9401
2394,"NA","ONTARIO","DOWNSVIEW","NA","dc35b695",2394
4823,"NA","MANITOBA","WINNIPEG","NA","dc35b695",4823
7185,"NA","BRITISH COLUMBIA","KELOWNA","NA","6e36648",7185
7105,"NA","BRITISH COLUMBIA","ABBOTSFORD","NA","6e36648",7105
1535,"NA","ONTARIO","KINGSTON","NA","dc35b695",1535
1016,"NA","ONTARIO","GUELPH","NA","dc35b695",1016
4804,"NA","MANITOBA","WINNIPEG","NA","dc35b695",4804
5109,"NA","ALBERTA","INNISFAIL","NA","6e36648",5109
7138,"NA","BRITISH COLUMBIA","VERNON","NA","6e36648",7138
890,"NA","ONTARIO","TORONTO","NA","dc35b695",890
4895,"NA","MANITOBA","WINNIPEG","NA","dc35b695",4895
7222,"NA","ALBERTA","BLAIRMORE","NA","6e36648",7222
7183,"NA","BRITISH COLUMBIA","MISSION","NA","6e36648",7183
638,"NA","ONTARIO","PETAWAWA","NA","dc35b695",638
2436,"NA","ONTARIO","HAMILTON","NA","dc35b695",2436
2329,"NA","ONTARIO","SUDBURY","NA","dc35b695",2329
6960,"NA","ONTARIO","NEPEAN","NA","6e36648",6960
9603,"NA","ONTARIO","TORONTO","NA","6e36648",9603
1073,"NA","ONTARIO","LONDON","NA","dc35b695",1073
3467,"NA","ONTARIO","BRAMPTON","NA","dc35b695",3467
4820,"NA","MANITOBA","WINNIPEG","NA","dc35b695",4820
7107,"NA","BRITISH COLUMBIA","FRASER LAKE","NA","6e36648",7107
7157,"NA","BRITISH COLUMBIA","SURREY","NA","6e36648",7157
7201,"NA","ALBERTA","MAYERTHORPE","NA","6e36648",7201
372,"NA","ONTARIO","CHATHAM","NA","dc35b695",372
8595,"NA","BRITISH COLUMBIA","VICTORIA","NA","235704e1",8595
5004,"NA","ONTARIO","PICKERING","NA","b2e9116e",5004
7131,"NA","BRITISH COLUMBIA","SURREY","NA","6e36648",7131
7207,"NA","ALBERTA","HIGH PRAIRIE","NA","6e36648",7207
4994,"NA","MANITOBA","WINNIPEG","NA","dc35b695",4994
7275,"NA","ALBERTA","CALGARY","NA","6e36648",7275
7119,"NA","BRITISH COLUMBIA","BURNABY","NA","6e36648",7119
2410,"NA","ONTARIO","BURLINGTON","NA","dc35b695",2410
810,"NA","ONTARIO","RICHMOND HILL","NA","dc35b695",810
3970,"NA","ONTARIO","VANCOUVER","NA","dc35b695",3970
5105,"NA","ONTARIO","MOUNT FOREST","NA","6e36648",5105
9604,"NA","ONTARIO","PETERBOROUGH","NA","6e36648",9604
1057,"NA","ONTARIO","LONDON","NA","dc35b695",1057
980,"NA","ONTARIO","BRAMPTON","NA","dc35b695",980
4950,"NA","MANITOBA","SELKIRK","NA","dc35b695",4950
7160,"NA","BRITISH COLUMBIA","VERNON","NA","6e36648",7160
7152,"NA","BRITISH COLUMBIA","SURREY","NA","6e36648",7152
662,"NA","ONTARIO","RENFREW","NA","dc35b695",662
1107,"NA","ONTARIO","CAMBRIDGE","NA","dc35b695",1107
4937,"NA","MANITOBA","WINNIPEG","NA","dc35b695",4937
9101,"NA","NOVA SCOTIA","ATLANTIC","NA","4d8ba31a",9101
9602,"NA","ONTARIO","SCARBOROUGH","NA","6e36648",9602
7244,"NA","ALBERTA","SHERWOOD PARK","NA","6e36648",7244
7251,"NA","ALBERTA","EDMONTON","NA","6e36648",7251
7267,"NA","ALBERTA","FORT MACLEOD","NA","6e36648",7267
7118,"NA","BRITISH COLUMBIA","BURNABY","NA","6e36648",7118
2428,"NA","ONTARIO","OAKVILLE","NA","dc35b695",2428
3053,"NA","ONTARIO","LONDON","NA","dc35b695",3053
2402,"NA","ONTARIO","STREETSVILLE","NA","dc35b695",2402
7135,"NA","BRITISH COLUMBIA","VICTORIA","NA","6e36648",7135
7164,"NA","BRITISH COLUMBIA","SURREY","NA","6e36648",7164
7249,"NA","ALBERTA","ST. ALBERT","NA","6e36648",7249
2303,"NA","ONTARIO","BRADFORD","NA","dc35b695",2303
7282,"NA","ALBERTA","CALGARY","NA","6e36648",7282
7401,"NA","MANITOBA","ALTONA","NA","6e36648",7401
8135,"NA","ONTARIO","NEPEAN","NA","6e36648",8135
3962,"NA","ONTARIO","MOHAWK TERRITORY","NA","dc35b695",3962
8568,"NA","BRITISH COLUMBIA","PARKSVILLE","NA","235704e1",8568
8146,"NA","ONTARIO","WINDSOR","NA","6e36648",8146
8103,"NA","ONTARIO","TORONTO","NA","6e36648",8103
1883,"NA","ONTARIO","WINGHAM","NA","dc35b695",1883
869,"NA","ONTARIO","WESTON","NA","dc35b695",869
4838,"NA","MANITOBA","WINNIPEG","NA","dc35b695",4838
7114,"NA","BRITISH COLUMBIA","CHEMAINUS","NA","6e36648",7114
7110,"NA","BRITISH COLUMBIA","COQUITLAM","NA","6e36648",7110
7256,"NA","ALBERTA","HINTON","NA","6e36648",7256
67,"NA","ONTARIO","MISSISSAUGA","NA","dc35b695",67
8559,"NA","ONTARIO","SAULT STE. MARIE","NA","235704e1",8559
9302,"NA","ONTARIO","TORONTO","NA","4d8ba31a",9302
9608,"NA","ONTARIO","BARRIE","NA","6e36648",9608
1859,"NA","ONTARIO","LONDON","NA","dc35b695",1859
2345,"NA","ONTARIO","WOODBRIDGE","NA","dc35b695",2345
4903,"NA","MANITOBA","WINNIPEG","NA","dc35b695",4903
7106,"NA","BRITISH COLUMBIA","BURNS LAKE","NA","6e36648",7106
7174,"NA","BRITISH COLUMBIA","VANCOUVER","NA","6e36648",7174
7163,"NA","BRITISH COLUMBIA","BURNABY","NA","6e36648",7163
2493,"NA","ONTARIO","GUELPH","NA","dc35b695",2493
8543,"NA","ONTARIO","GLOUCESTER","NA","235704e1",8543
9301,"NA","NOVA SCOTIA","ATLANTIC","NA","4d8ba31a",9301
7154,"NA","BRITISH COLUMBIA","VICTORIA","NA","6e36648",7154
7217,"NA","ALBERTA","ATHABASCA","NA","6e36648",7217
117,"NA","ONTARIO","THORNHILL","NA","dc35b695",117
7264,"NA","ALBERTA","CALGARY","NA","6e36648",7264
7304,"NA","SASKATCHEWAN","SASKATOON","NA","6e36648",7304
6923,"NA","ONTARIO","WELLAND","NA","6e36648",6923
315,"NA","ONTARIO","OTTAWA","NA","dc35b695",315
8592,"NA","NEW BRUNSWICK","FREDERICTON","NA","235704e1",8592
7219,"NA","ALBERTA","WHITECOURT","NA","6e36648",7219
7278,"NA","ALBERTA","EDMONTON","NA","6e36648",7278
232,"NA","ONTARIO","BRACEBRIDGE","NA","dc35b695",232
8123,"NA","ONTARIO","WINDSOR","NA","6e36648",8123
604,"NA","ONTARIO","TORONTO","NA","dc35b695",604
380,"NA","ONTARIO","NEPEAN","NA","dc35b695",380
8167,"NA","ONTARIO","ATIKOKAN","NA","6e36648",8167
108,"NA","ONTARIO","KINGSTON","NA","dc35b695",108
8626,"NA","NEWFOUNDLAND","CLARENVILLE","NA","235704e1",8626
8520,"NA","SASKATCHEWAN","SASKATOON","NA","235704e1",8520
8540,"NA","ONTARIO","HAMILTON","NA","235704e1",8540
7233,"NA","ALBERTA","SHERWOOD PARK","NA","6e36648",7233
4812,"NA","MANITOBA","WINNIPEG","NA","dc35b695",4812
7231,"NA","ALBERTA","AIRDRIE","NA","6e36648",7231
7189,"NA","BRITISH COLUMBIA","VANCOUVER","NA","6e36648",7189
1420,"NA","ONTARIO","HAMILTON","NA","dc35b695",1420
356,"NA","ONTARIO","PEMBROKE","NA","dc35b695",356
1834,"NA","ONTARIO","ACTON","NA","dc35b695",1834
5101,"NA","ONTARIO","PORT HOPE","NA","6e36648",5101
7175,"NA","BRITISH COLUMBIA","PRINCE GEROGE","NA","6e36648",7175
1263,"NA","ONTARIO","WHITBY","NA","dc35b695",1263
6912,"NA","ONTARIO","WOODSTOCK","NA","6e36648",6912
7266,"NA","ALBERTA","PINCHER CREEK","NA","6e36648",7266
8196,"NA","ONTARIO","MEAFORD","NA","6e36648",8196
1347,"NA","ONTARIO","MISSISSAUGA","NA","dc35b695",1347
7241,"NA","ALBERTA","STONY PLAIN","NA","6e36648",7241
1305,"NA","ONTARIO","OTTAWA","NA","dc35b695",1305
8604,"NA","SASKATCHEWAN","REGINA","NA","235704e1",8604
8756,"NA","MANITOBA","TRACADIE-SHEILA","NA","4d8ba31a",8756
7223,"NA","ALBERTA","PONOKA","NA","6e36648",7223
1594,"NA","ONTARIO","GODERICH","NA","dc35b695",1594
6948,"NA","ONTARIO","TORONTO","NA","6e36648",6948
2006,"NA","ONTARIO","OTTAWA","NA","dc35b695",2006
6925,"NA","ONTARIO","SUDBURY","NA","6e36648",6925
8212,"NA","ONTARIO","WELLAND","NA","6e36648",8212
8588,"NA","ALBERTA","EDMONTON","NA","235704e1",8588
8590,"NA","ONTARIO","LONDON","NA","235704e1",8590
8665,"NA","ONTARIO","TORONTO","NA","235704e1",8665
7213,"NA","ALBERTA","OLDS","NA","6e36648",7213
1784,"NA","ONTARIO","KITCHENER","NA","dc35b695",1784
6942,"NA","ONTARIO","TORONTO","NA","6e36648",6942
8192,"NA","ONTARIO","OTTAWA","NA","dc35b695",8192
8202,"NA","ONTARIO","HAMILTON","NA","6e36648",8202
6934,"NA","ONTARIO","KINGSTON","NA","6e36648",6934
8603,"NA","SASKATCHEWAN","SASKATOON","NA","235704e1",8603
8637,"NA","ALBERTA","FORT MCMURRAY","NA","235704e1",8637
8569,"NA","BRITISH COLUMBIA","COMOX","NA","235704e1",8569
7514,"NA","ALBERTA","EDMONTON","NA","6e36648",7514
1024,"NA","ONTARIO","GUELPH","NA","dc35b695",1024
6924,"NA","ONTARIO","BOLTON","NA","6e36648",6924
91,"NA","ONTARIO","ORLEANS","NA","dc35b695",91
6955,"NA","ONTARIO","SIOUX LOOKOUT","NA","6e36648",6955
8207,"NA","ONTARIO","ANCASTER","NA","6e36648",8207
8556,"NA","BRITISH COLUMBIA","SURREY","NA","235704e1",8556
8570,"NA","ALBERTA","EDMONTON","NA","235704e1",8570
8629,"NA","NOVA SCOTIA","SYDNEY","NA","235704e1",8629
7513,"NA","ALBERTA","DEVON","NA","6e36648",7513
612,"NA","ONTARIO","KITCHENER","NA","dc35b695",612
8161,"NA","ONTARIO","TORONTO","NA","6e36648",8161
8190,"NA","ONTARIO","OTTAWA","NA","dc35b695",8190
8205,"NA","ONTARIO","HAMILTON","NA","6e36648",8205
8216,"NA","ONTARIO","BRACEBRIDGE","NA","6e36648",8216
8507,"NA","ALBERTA","EDMONTON","NA","235704e1",8507
8517,"NA","ALBERTA","FT SASK","NA","235704e1",8517
8631,"NA","BRITISH COLUMBIA","VANCOUVER","NA","235704e1",8631
1791,"NA","ONTARIO","LONDON","NA","dc35b695",1791
158,"NA","ONTARIO","ETOBICOKE","NA","dc35b695",158
4821,"NA","MANITOBA","WINNIPEG","NA","dc35b695",4821
7111,"NA","BRITISH COLUMBIA","CHEMAINUS","NA","6e36648",7111
7117,"NA","BRITISH COLUMBIA","WHISTLER","NA","6e36648",7117
661,"NA","ONTARIO","RENFREW","NA","dc35b695",661
2097,"NA","ONTARIO","BURLINGTON","NA","dc35b695",2097
307,"NA","ONTARIO","TORONTO","NA","dc35b695",307
8129,"NA","ONTARIO","WINDSOR","NA","6e36648",8129
8102,"NA","ONTARIO","RICHMOND HILL","NA","6e36648",8102
1504,"NA","ONTARIO","OSHAWA","NA","dc35b695",1504
8126,"NA","ONTARIO","WINDSOR","NA","6e36648",8126
7269,"NA","ALBERTA","CANMORE","NA","6e36648",7269
6997,"NA","ONTARIO","TORONTO","NA","6e36648",6997
1743,"NA","ONTARIO","HAMILTON","NA","dc35b695",1743
7265,"NA","ALBERTA","EDMONTON","NA","6e36648",7265
8527,"NA","ALBERTA","LETHBRIDGE","NA","235704e1",8527
8664,"NA","ALBERTA","LEDUC","NA","235704e1",8664
7199,"NA","BRITISH COLUMBIA","VICTORIA","NA","6e36648",7199
2105,"NA","ONTARIO","LINDSAY","NA","dc35b695",2105
6929,"NA","ONTARIO","UXBRIDGE","NA","6e36648",6929
2485,"NA","ONTARIO","WATERLOO","NA","dc35b695",2485
2014,"NA","ONTARIO","OTTAWA","NA","dc35b695",2014
6928,"NA","ONTARIO","GERALDTON","NA","6e36648",6928
1941,"NA","ONTARIO","PEMBROKE","NA","dc35b695",1941
8666,"NA","ALBERTA","EDMONTON","NA","235704e1",8666
8612,"NA","ALBERTA","CALGARY","NA","235704e1",8612
8600,"NA","ALBERTA","ST. ALBERT","NA","235704e1",8600
224,"NA","ONTARIO","WILLOWDALE","NA","dc35b695",224
6910,"NA","ONTARIO","PETERBOROUGH","NA","6e36648",6910
6933,"NA","ONTARIO","MARKHAM","NA","6e36648",6933
385,"NA","ONTARIO","OTTAWA","NA","dc35b695",385
8153,"NA","ONTARIO","HANMER","NA","6e36648",8153
2261,"NA","ONTARIO","PICTON","NA","dc35b695",2261
8593,"NA","ALBERTA","CALGARY","NA","235704e1",8593
8531,"NA","ONTARIO","MAPLE","NA","235704e1",8531
8648,"NA","BRITISH COLUMBIA","NEW WESTMINSTER","NA","235704e1",8648
2238,"NA","ONTARIO","LINDSAY","NA","dc35b695",2238
8121,"NA","ONTARIO","LA SALLE","NA","6e36648",8121
7295,"NA","ALBERTA","STANDOFF","NA","6e36648",7295
8169,"NA","ONTARIO","CAMBRIDGE","NA","6e36648",8169
2080,"NA","ONTARIO","MISSISSAUGA","NA","dc35b695",2080
7312,"NA","SASKATCHEWAN","MOOSE JAW","NA","6e36648",7312
349,"NA","ONTARIO","PETAWAWA","NA","dc35b695",349
8572,"NA","NOVA SCOTIA","NEW GLASGOW","NA","235704e1",8572
9203,"NA","BRITISH COLUMBIA","WEST","NA","4d8ba31a",9203
7279,"NA","ALBERTA","MEDICINE HAT","NA","6e36648",7279
6995,"NA","ONTARIO","SCARBOROUGH","NA","6e36648",6995
8115,"NA","ONTARIO","AJAX","NA","6e36648",8115
1180,"NA","ONTARIO","MISSISSAUGA","NA","dc35b695",1180
6976,"NA","ONTARIO","IROQUOIS FALLS","NA","6e36648",6976
8214,"NA","ONTARIO","BRANTFORD","NA","6e36648",8214
8633,"NA","ONTARIO","SAULT STE. MARIE","NA","235704e1",8633
8571,"NA","ALBERTA","CALGARY","NA","235704e1",8571
8549,"NA","BRITISH COLUMBIA","VANCOUVER","NA","235704e1",8549
109,"NA","ONTARIO","SCARBOROUGH","NA","dc35b695",109
8191,"NA","ONTARIO","TORONTO","NA","dc35b695",8191
7288,"NA","ALBERTA","CALGARY","NA","6e36648",7288
8171,"NA","ONTARIO","GUELPH","NA","6e36648",8171
83,"NA","ONTARIO","MISSISSAUGA","NA","dc35b695",83
7239,"NA","ALBERTA","JASPER","NA","6e36648",7239
3137,"NA","ONTARIO","HAMILTON","NA","dc35b695",3137
8532,"NA","ONTARIO","TORONTO","NA","235704e1",8532
9501,"NA","NOVA SCOTIA","ATLANTIC","NA","4d8ba31a",9501
1446,"NA","ONTARIO","PICKERING","NA","dc35b695",1446
8131,"NA","ONTARIO","WINDSOR","NA","6e36648",8131
1028,"NA","ONTARIO","GUELPH","NA","dc35b695",1028
1453,"NA","ONTARIO","KANATA","NA","dc35b695",1453
6967,"NA","ONTARIO","SAULT STE. MARIE","NA","6e36648",6967
653,"NA","ONTARIO","DEEP RIVER","NA","dc35b695",653
8618,"NA","ONTARIO","DUNDAS","NA","235704e1",8618
8508,"NA","ALBERTA","CALGARY","NA","235704e1",8508
8650,"NA","ONTARIO","KITCHENER","NA","235704e1",8650
7254,"NA","ALBERTA","HINTON","NA","6e36648",7254
1248,"NA","ONTARIO","MAPLE","NA","dc35b695",1248
7517,"NA","ALBERTA","LETHBRIDGE","NA","6e36648",7517
7409,"NA","MANITOBA","STONEWALL","NA","6e36648",7409
8210,"NA","ONTARIO","HAMILTON","NA","6e36648",8210
216,"NA","ONTARIO","TORONTO","NA","dc35b695",216
8584,"NA","ALBERTA","BARRHEAD","NA","235704e1",8584
5102,"NA","ONTARIO","CHELMSFORD","NA","6e36648",5102
9605,"NA","ONTARIO","BELLEVILLE","NA","6e36648",9605
1768,"NA","ONTARIO","LONDON","NA","dc35b695",1768
844,"NA","ONTARIO","TORONTO","NA","dc35b695",844
7260,"NA","ALBERTA","CALGARY","NA","6e36648",7260
7136,"NA","BRITISH COLUMBIA","POWELL RIVER","NA","6e36648",7136
2188,"NA","ONTARIO","CALEDONIA","NA","dc35b695",2188
7307,"NA","SASKATCHEWAN","REGINA","NA","6e36648",7307
4986,"NA","MANITOBA","WINNIPEG","NA","dc35b695",4986
8522,"NA","MANITOBA","WINNIPEG","NA","235704e1",8522
5021,"NA","ONTARIO","KINGSTON","NA","b2e9116e",5021
9806,"NA","ALBERTA","CALGARY","NA","6e36648",9806
877,"NA","ONTARIO","SCARBOROUGH","NA","dc35b695",877
8163,"NA","ONTARIO","LONDON","NA","6e36648",8163
1289,"NA","ONTARIO","RICHMOND HILL","NA","dc35b695",1289
1255,"NA","ONTARIO","OTTAWA","NA","dc35b695",1255
6913,"NA","ONTARIO","KAPUSKASING","NA","6e36648",6913
654,"NA","ONTARIO","DEEP RIVER","NA","dc35b695",654
8658,"NA","NOVA SCOTIA","SYDNEY","NA","235704e1",8658
8560,"NA","BRITISH COLUMBIA","KELOWNA","NA","235704e1",8560
8576,"NA","NEW BRUNSWICK","TRACADIE-SHEILA","NA","235704e1",8576
410,"NA","ONTARIO","SCARBOROUGH","NA","dc35b695",410
8122,"NA","ONTARIO","LEAMINGTON","NA","6e36648",8122
7270,"NA","ALBERTA","CALGARY","NA","6e36648",7270
6970,"NA","ONTARIO","ORILLIA","NA","6e36648",6970
1040,"NA","ONTARIO","BURLINGTON","NA","dc35b695",1040
7245,"NA","ALBERTA","DRAYTON VALLEY","NA","6e36648",7245
8511,"NA","ALBERTA","CALGARY","NA","235704e1",8511
8640,"NA","BRITISH COLUMBIA","SUREY","NA","235704e1",8640
7298,"NA","ALBERTA","EDMONTON","NA","6e36648",7298
1727,"NA","ONTARIO","LONDON","NA","dc35b695",1727
2360,"NA","ONTARIO","ALLISTON","NA","dc35b695",2360
4978,"NA","MANITOBA","WINNIPEG","NA","dc35b695",4978
7126,"NA","BRITISH COLUMBIA","VICTORIA","NA","6e36648",7126
7169,"NA","BRITISH COLUMBIA","SURREY","NA","6e36648",7169
7155,"NA","BRITISH COLUMBIA","SURREY","NA","6e36648",7155
927,"NA","ONTARIO","TORONTO","NA","dc35b695",927
2907,"NA","NOVA SCOTIA","DARTMOUTH","NA","dc35b695",2907
5098,"NA","ONTARIO","TORONTO","NA","b2e9116e",5098
9650,"NA","ONTARIO","TORONTO","NA","6e36648",9650
406,"NA","ONTARIO","SCARBOROUGH","NA","dc35b695",406
6914,"NA","ONTARIO","SARNIA","NA","6e36648",6914
778,"NA","ONTARIO","DURHAM","NA","dc35b695",778
6919,"NA","ONTARIO","CHESLEY","NA","6e36648",6919
6950,"NA","ONTARIO","VAL CARON","NA","6e36648",6950
7294,"NA","ALBERTA","EDMONTON","NA","6e36648",7294
8607,"NA","ALBERTA","CALGARY","NA","235704e1",8607
8521,"NA","SASKATCHEWAN","SASKATOON","NA","235704e1",8521
8518,"NA","ONTARIO","TORONTO","NA","235704e1",8518
984,"NA","ONTARIO","BRAMPTON","NA","dc35b695",984
4870,"NA","MANITOBA","WINNIPEG","NA","dc35b695",4870
7240,"NA","ALBERTA","HIGH RIVER","NA","6e36648",7240
7162,"NA","BRITISH COLUMBIA","NEW WESTMINISTER","NA","6e36648",7162
2352,"NA","ONTARIO","COLLINGWOOD","NA","dc35b695",2352
2279,"NA","ONTARIO","TORONTO","NA","dc35b695",2279
1636,"NA","ONTARIO","BELLEVILLE","NA","dc35b695",1636
6968,"NA","ONTARIO","OTTAWA","NA","6e36648",6968
7252,"NA","ALBERTA","EDMONTON","NA","6e36648",7252
901,"NA","ONTARIO","SCARBOROUGH","NA","dc35b695",901
6901,"NA","ONTARIO","WOODSTOCK","NA","6e36648",6901
323,"NA","ONTARIO","KITCHENER","NA","dc35b695",323
1149,"NA","ONTARIO","NEPEAN","NA","dc35b695",1149
6904,"NA","ONTARIO","TIMMINS","NA","6e36648",6904
7509,"NA","ALBERTA","NW EDMONTON","NA","6e36648",7509
8586,"NA","ALBERTA","SHERWOOD PARK","NA","235704e1",8586
8657,"NA","SASKATCHEWAN","REGINA","NA","235704e1",8657
8642,"NA","ALBERTA","CALGARY","NA","235704e1",8642
364,"NA","ONTARIO","CHATHAM","NA","dc35b695",364
891,"NA","ONTARIO","TORONTO","NA","dc35b695",891
4824,"NA","MANITOBA","WINNIPEG","NA","dc35b695",4824
7125,"NA","BRITISH COLUMBIA","VICTORIA","NA","6e36648",7125
7168,"NA","BRITISH COLUMBIA","SECHELT","NA","6e36648",7168
7301,"NA","SASKATCHEWAN","SWIFT CURRENT","NA","6e36648",7301
1271,"NA","ONTARIO","NORTH BAY","NA","dc35b695",1271
8599,"NA","ALBERTA","CALGARY","NA","235704e1",8599
5024,"NA","ONTARIO","LONDON","NA","b2e9116e",5024
7113,"NA","BRITISH COLUMBIA","ABBOTSFORD","NA","6e36648",7113
11,"NA","ONTARIO","NORTH BAY","NA","dc35b695",11
1974,"NA","ONTARIO","TORONTO","NA","dc35b695",1974
7286,"NA","ALBERTA","OKOTOKS","NA","6e36648",7286
6952,"NA","ONTARIO","BARRIE","NA","6e36648",6952
1800,"NA","ONTARIO","NIAGARA FALLS","NA","dc35b695",1800
7317,"NA","SASKATCHEWAN","GRAVELBOURG","NA","6e36648",7317
4929,"NA","MANITOBA","WINNIPEG","NA","dc35b695",4929
8634,"NA","ONTARIO","WHITBY","NA","235704e1",8634
9402,"NA","ONTARIO","TORONTO","NA","4d8ba31a",9402
1602,"NA","ONTARIO","PICKERING","NA","dc35b695",1602
8128,"NA","ONTARIO","WINDSOR","NA","6e36648",8128
7273,"NA","ALBERTA","MEDICINE HAT","NA","6e36648",7273
6998,"NA","ONTARIO","RICHMOND HILL","NA","6e36648",6998
2089,"NA","ONTARIO","BURLINGTON","NA","dc35b695",2089
7210,"NA","ALBERTA","WESTLOCK","NA","6e36648",7210
8583,"NA","ONTARIO","SCARBOROUGH","NA","235704e1",8583
8509,"NA","ALBERTA","PEACE RIVER","NA","235704e1",8509
7140,"NA","BRITISH COLUMBIA","VICTORIA","NA","6e36648",7140
1705,"NA","ONTARIO","AJAX","NA","dc35b695",1705
8125,"NA","ONTARIO","CHATHAM","NA","6e36648",8125
1776,"NA","ONTARIO","KITCHENER","NA","dc35b695",1776
6926,"NA","ONTARIO","ELLIOT LAKE","NA","6e36648",6926
6915,"NA","ONTARIO","SUDBURY","NA","6e36648",6915
7503,"NA","ALBERTA","EDMONTON","NA","6e36648",7503
8510,"NA","ALBERTA","EDMONTON","NA","235704e1",8510
8597,"NA","ONTARIO","GUELPH","NA","235704e1",8597
8574,"NA","NEW BRUNSWICK","MONCTON","NA","235704e1",8574
1701,"NA","ONTARIO","AJAX","NA","dc35b695",1701
6978,"NA","ONTARIO","RICHMOND HILL","NA","6e36648",6978
414,"NA","ONTARIO","OTTAWA","NA","dc35b695",414
1454,"NA","ONTARIO","KANATA","NA","dc35b695",1454
8182,"NA","ONTARIO","SUDBURY","NA","6e36648",8182
1008,"NA","ONTARIO","TRENTON","NA","dc35b695",1008
8537,"NA","ONTARIO","TORONTO","NA","235704e1",8537
8652,"NA","NEW BRUNSWICK","MONCTON","NA","235704e1",8652
8616,"NA","ONTARIO","SASKATOON","NA","235704e1",8616
7246,"NA","ALBERTA","EDMONTON","NA","6e36648",7246
1719,"NA","ONTARIO","KINCARDINE","NA","dc35b695",1719
8141,"NA","ONTARIO","TORONTO","NA","6e36648",8141
1545,"NA","ONTARIO","OTTAWA","NA","dc35b695",1545
8195,"NA","ONTARIO","TORONTO","NA","6e36648",8195
6946,"NA","ONTARIO","HAMILTON","NA","6e36648",6946
8503,"NA","ALBERTA","EDMONTON","NA","235704e1",8503
8505,"NA","ALBERTA","EDMONTON","NA","235704e1",8505
8591,"NA","ONTARIO","OSHAWA","NA","235704e1",8591
7272,"NA","ALBERTA","RED DEER","NA","6e36648",7272
1461,"NA","ONTARIO","KITCHENER","NA","dc35b695",1461
8164,"NA","ONTARIO","TORONTO","NA","6e36648",8164
1487,"NA","ONTARIO","OTTAWA","NA","dc35b695",1487
8211,"NA","ONTARIO","HAMILTON","NA","6e36648",8211
8206,"NA","ONTARIO","SMITHVILLE","NA","6e36648",8206
8563,"NA","BRITISH COLUMBIA","SOUTH SURREY","NA","235704e1",8563
8613,"NA","ONTARIO","COBOURG","NA","235704e1",8613
8647,"NA","ONTARIO","SARINA","NA","235704e1",8647
1790,"NA","ONTARIO","LONDON","NA","dc35b695",1790
48,"NA","ONTARIO","TORONTO","NA","dc35b695",48
7238,"NA","ALBERTA","EDMONTON","NA","6e36648",7238
7129,"NA","BRITISH COLUMBIA","VICTORIA","NA","6e36648",7129
203,"NA","ONTARIO","HAMILTON","NA","dc35b695",203
7297,"NA","NORTHWEST TERRITORY","INUVIK","NA","6e36648",7297
3111,"NA","ONTARIO","OAKVILLE","NA","dc35b695",3111
8651,"NA","ALBERTA","RED DEER","NA","235704e1",8651
5020,"NA","ONTARIO","HAMILTON","NA","b2e9116e",5020
9803,"NA","ALBERTA","CALGARY","NA","6e36648",9803
7516,"NA","ALBERTA","WAINWRIGHT","NA","6e36648",7516
182,"NA","ONTARIO","TORONTO","NA","dc35b695",182
6992,"NA","ONTARIO","TORONTO","NA","6e36648",6992
2204,"NA","ONTARIO","KANATA","NA","dc35b695",2204
8144,"NA","ONTARIO","ELLIOT LAKE","NA","6e36648",8144
8209,"NA","ONTARIO","DUNNVILLE","NA","6e36648",8209
8645,"NA","ONTARIO","BURLINGTON","NA","235704e1",8645
8627,"NA","ONTARIO","WOODBRIDGE","NA","235704e1",8627
8585,"NA","ALBERTA","EDMONTON","NA","235704e1",8585
2246,"NA","ONTARIO","AJAX","NA","dc35b695",2246
8124,"NA","ONTARIO","WINDSOR","NA","6e36648",8124
2477,"NA","ONTARIO","KITCHENER","NA","dc35b695",2477
679,"NA","ONTARIO","NEPEAN","NA","dc35b695",679
8155,"NA","ONTARIO","PARRY SOUND","NA","6e36648",8155
7501,"NA","ALBERTA","WESTLOCK","NA","6e36648",7501
8578,"NA","ALBERTA","CALGARYN","NA","235704e1",8578
8601,"NA","NEWFOUNDLAND","GANDER","NA","235704e1",8601
8610,"NA","ONTARIO","CALEDONIA","NA","235704e1",8610
7229,"NA","ALBERTA","EDMONTON","NA","6e36648",7229
2055,"NA","ONTARIO","TORONTO","NA","dc35b695",2055
8166,"NA","ONTARIO","TORONTO","NA","6e36648",8166
205,"NA","ONTARIO","HAMILTON","NA","dc35b695",205
8204,"NA","ONTARIO","HAMILTON","NA","6e36648",8204
8132,"NA","ONTARIO","CARDINAL","NA","6e36648",8132
8619,"NA","NEW BRUNSWICK","MONCTON","NA","235704e1",8619
8653,"NA","BRITISH COLUMBIA","PORT ALBERNI","NA","235704e1",8653
8605,"NA","QUEBEC","LAMEQUE","NA","235704e1",8605
34,"NA","ONTARIO","NORTH BAY","NA","dc35b695",34
795,"NA","ONTARIO","TORONTO","NA","dc35b695",795
7280,"NA","ALBERTA","MILK RIVER","NA","6e36648",7280
7187,"NA","BRITISH COLUMBIA","COURTENAY","NA","6e36648",7187
201,"NA","ONTARIO","DUNDAS","NA","dc35b695",201
7313,"NA","SASKATCHEWAN","MELFORT","NA","6e36648",7313
1578,"NA","ONTARIO","GUELPH","NA","dc35b695",1578
8562,"NA","ONTARIO","OTTAWA","NA","235704e1",8562
5022,"NA","ONTARIO","ST. CATHARINES","NA","b2e9116e",5022
9802,"NA","ALBERTA","EDMONTON","NA","6e36648",9802
7248,"NA","ALBERTA","EDMONTON","NA","6e36648",7248
2295,"NA","ONTARIO","ORILLIA","NA","dc35b695",2295
6979,"NA","ONTARIO","TORONTO","NA","6e36648",6979
7179,"NA","BRITISH COLUMBIA","PENTICTION","NA","6e36648",7179
6969,"NA","ONTARIO","NEPEAN","NA","6e36648",6969
845,"NA","ONTARIO","TORONTO","NA","dc35b695",845
8566,"NA","BRITISH COLUMBIA","KAMLOOPS","NA","235704e1",8566
6906,"NA","ONTARIO","LONDON","NA","6e36648",6906
2048,"NA","ONTARIO","MISSISSAUGA","NA","dc35b695",2048
7296,"NA","ALBERTA","EDMONTON","NA","6e36648",7296
1081,"NA","ONTARIO","GUELPH","NA","dc35b695",1081
8183,"NA","ONTARIO","STAYNER","NA","6e36648",8183
7402,"NA","MANITOBA","WINNIPEG","NA","6e36648",7402
8151,"NA","ONTARIO","ORLEANS","NA","6e36648",8151
3905,"NA","NOVA SCOTIA","HALIFAX","NA","dc35b695",3905
8614,"NA","ONTARIO","ST.GEORGE","NA","235704e1",8614
7306,"NA","SASKATCHEWAN","SASKATOON","NA","6e36648",7306
3996,"NA","ONTARIO","RICHMOND HILL","NA","dc35b695",3996
7271,"NA","ALBERTA","RED DEER","NA","6e36648",7271
1378,"NA","ONTARIO","BARRIE","NA","dc35b695",1378
8139,"NA","ONTARIO","TORONTO","NA","6e36648",8139
7109,"NA","BRITISH COLUMBIA","VANDERHOOF","NA","6e36648",7109
6983,"NA","ONTARIO","MISSISSAUGA","NA","6e36648",6983
8160,"NA","ONTARIO","BELLEVILLE","NA","6e36648",8160
8526,"NA","ALBERTA","CALGARY","NA","235704e1",8526
455,"NA","ONTARIO","LEAMINGTON","NA","dc35b695",455
7156,"NA","BRITISH COLUMBIA","VANCOUVER","NA","6e36648",7156
7261,"NA","ALBERTA","EDMONTON","NA","6e36648",7261
1370,"NA","ONTARIO","BARRIE","NA","dc35b695",1370
8110,"NA","ONTARIO","RICHMOND HILL","NA","6e36648",8110
7410,"NA","MANITOBA","BEAUSEJOUR","NA","6e36648",7410
8186,"NA","ONTARIO","KANATA","NA","6e36648",8186
1065,"NA","ONTARIO","LONDON","NA","dc35b695",1065
8512,"NA","SASKATCHEWAN","REGINA","NA","235704e1",8512
5106,"NA","ONTARIO","PETROLIA","NA","6e36648",5106
3988,"NA","NEW BRUNSWICK","ST. JOHN","NA","dc35b695",3988
7232,"NA","ALBERTA","EDMONTON","NA","6e36648",7232
1313,"NA","ONTARIO","RICHMOND HILL","NA","dc35b695",1313
8179,"NA","ONTARIO","TORONTO","NA","6e36648",8179
1917,"NA","ONTARIO","OTTAWA","NA","dc35b695",1917
6941,"NA","ONTARIO","TORONTO","NA","6e36648",6941
8215,"NA","ONTARIO","WELLAND","NA","6e36648",8215
8628,"NA","ONTARIO","LONDON","NA","235704e1",8628
8646,"NA","SASKATCHEWAN","SASKATOON","NA","235704e1",8646
8551,"NA","ONTARIO","ORLEANS","NA","235704e1",8551
7247,"NA","ALBERTA","EDMONTON","NA","6e36648",7247
1396,"NA","ONTARIO","BARRIE","NA","dc35b695",1396
8142,"NA","ONTARIO","TORONTO","NA","6e36648",8142
1610,"NA","ONTARIO","WELLAND","NA","dc35b695",1610
6918,"NA","ONTARIO","TORONTO","NA","6e36648",6918
6932,"NA","ONTARIO","PERTH","NA","6e36648",6932
8615,"NA","SASKATCHEWAN","SASKATOON","NA","235704e1",8615
8649,"NA","ALBERTA","EDMONTON","NA","235704e1",8649
8581,"NA","ALBERTA","CALGARY","NA","235704e1",8581
919,"NA","ONTARIO","SCARBOROUGH","NA","dc35b695",919
6977,"NA","ONTARIO","LONDON","NA","6e36648",6977
7243,"NA","ALBERTA","CALGARY","NA","6e36648",7243
6917,"NA","ONTARIO","KITCHENER","NA","6e36648",6917
3468,"NA","ONTARIO","BRAMPTON","NA","dc35b695",3468
7204,"NA","ALBERTA","FOX CREEK","NA","6e36648",7204
174,"NA","ONTARIO","TORONTO","NA","dc35b695",174
8564,"NA","ONTARIO","STONEY CREEK","NA","235704e1",8564
9202,"NA","ONTARIO","TORONTO","NA","4d8ba31a",9202
7230,"NA","ALBERTA","EDMONTON","NA","6e36648",7230
2469,"NA","ONTARIO","WATERLOO","NA","dc35b695",2469
8175,"NA","ONTARIO","TORONTO","NA","6e36648",8175
1362,"NA","ONTARIO","OTTAWA","NA","dc35b695",1362
6964,"NA","ONTARIO","MILTON","NA","6e36648",6964
8213,"NA","ONTARIO","ST. CATHARINES","NA","6e36648",8213
8668,"NA","BRITISH COLUMBIA","QUALICUM BEACH","NA","235704e1",8668
8670,"NA","NOVA SCOTIA","LOWER SACKVILLE","NA","235704e1",8670
8587,"NA","PRINCE EDWARD ISLAND","SUMMERSIDE","NA","235704e1",8587
7316,"NA","SASKATCHEWAN","MELVILLE","NA","6e36648",7316
2337,"NA","ONTARIO","ORANGEVILLE","NA","dc35b695",2337
6991,"NA","ONTARIO","TORONTO","NA","6e36648",6991
398,"NA","ONTARIO","OTTAWA","NA","dc35b695",398
8149,"NA","ONTARIO","VAUGHAN","NA","6e36648",8149
6907,"NA","ONTARIO","WELLAND","NA","6e36648",6907
8636,"NA","NEW BRUNSWICK","DIEPPE","NA","235704e1",8636
8662,"NA","NOVA SCOTIA","HALIFAX","NA","235704e1",8662
8575,"NA","BRITISH COLUMBIA","SECHELT","NA","235704e1",8575
7510,"NA","ALBERTA","SPIRIT RIVER","NA","6e36648",7510
3848,"NA","ONTARIO","TORONTO","NA","dc35b695",3848
8138,"NA","ONTARIO","COLLINGWOOD","NA","6e36648",8138
7403,"NA","MANITOBA","WINNIPEG","NA","6e36648",7403
8136,"NA","ONTARIO","OTTAWA","NA","6e36648",8136
3129,"NA","ONTARIO","KITCHENER","NA","dc35b695",3129
8536,"NA","ONTARIO","WILLOWDALE","NA","235704e1",8536
5110,"NA","ALBERTA","WESTLOCK","NA","6e36648",5110
9201,"NA","PRINCE EDWARD ISLAND","MARITIMES","NA","4d8ba31a",9201
7242,"NA","ALBERTA","PINCHER CREEK","NA","6e36648",7242
3061,"NA","ONTARIO","WATERLOO","NA","dc35b695",3061
8156,"NA","ONTARIO","KESWICK","NA","6e36648",8156
7127,"NA","BRITISH COLUMBIA","VICTORIA","NA","6e36648",7127
6971,"NA","ONTARIO","MANOTICK","NA","6e36648",6971
3822,"NA","ONTARIO","TORONTO","NA","dc35b695",3822
8598,"NA","ALBERTA","EDMONTON","NA","235704e1",8598
5108,"NA","ALBERTA","DEVON","NA","6e36648",5108
1910,"NA","ONTARIO","AMHERSTBURG","NA","dc35b695",1910
1628,"NA","ONTARIO","SAULT STE MARIE","NA","dc35b695",1628
943,"NA","ONTARIO","TORONTO","NA","dc35b695",943
7281,"NA","ALBERTA","CALGARY","NA","6e36648",7281
7191,"NA","BRITISH COLUMBIA","NANAIMO","NA","6e36648",7191
2451,"NA","ONTARIO","THOROLD","NA","dc35b695",2451
7308,"NA","SASKATCHEWAN","REGINA","NA","6e36648",7308
3814,"NA","ONTARIO","LONDON","NA","dc35b695",3814
8594,"NA","ALBERTA","CALGARY","NA","235704e1",8594
5001,"NA","ONTARIO","BRAMPTON","NA","b2e9116e",5001
9804,"NA","ALBERTA","CALGARY","NA","6e36648",9804
7226,"NA","ALBERTA","BEAUMONT","NA","6e36648",7226
752,"NA","ONTARIO","NORTH YORK","NA","dc35b695",752
6981,"NA","ONTARIO","TORONTO","NA","6e36648",6981
7103,"NA","BRITISH COLUMBIA","VICTORIA","NA","6e36648",7103
8157,"NA","ONTARIO","OTTAWA","NA","6e36648",8157
3806,"NA","ONTARIO","TORONTO","NA","dc35b695",3806
8582,"NA","ONTARIO","LONDON","NA","235704e1",8582
6965,"NA","ONTARIO","OTTAWA","NA","6e36648",6965
1735,"NA","ONTARIO","LONDON","NA","dc35b695",1735
7253,"NA","ALBERTA","EDMONTON","NA","6e36648",7253
125,"NA","ONTARIO","TORONTO","NA","dc35b695",125
6990,"NA","ONTARIO","TORONTO","NA","6e36648",6990
1826,"NA","ONTARIO","WATERFORD","NA","dc35b695",1826
8208,"NA","ONTARIO","HAMILTON","NA","6e36648",8208
6943,"NA","ONTARIO","CAMPBELLFORD","NA","6e36648",6943
8639,"NA","BRITISH COLUMBIA","VANCOUVER","NA","235704e1",8639
4911,"NA","MANITOBA","WINNIPEG","NA","dc35b695",4911
8621,"NA","BRITISH COLUMBIA","VANCOUVER","NA","235704e1",8621
7511,"NA","ALBERTA","MILLET","NA","6e36648",7511
1644,"NA","ONTARIO","SOUTHAMPTON","NA","dc35b695",1644
8158,"NA","ONTARIO","TORONTO","NA","6e36648",8158
2212,"NA","ONTARIO","OTTAWA","NA","dc35b695",2212
6916,"NA","ONTARIO","TORONTO","NA","6e36648",6916
6947,"NA","ONTARIO","ARNPRIOR","NA","6e36648",6947
8579,"NA","ONTARIO","PETERBOROUGH","NA","235704e1",8579
8617,"NA","ALBERTA","EDMONTON","NA","235704e1",8617
8529,"NA","ALBERTA","HIGH PRAIRIE","NA","235704e1",8529
2113,"NA","ONTARIO","LINDSAY","NA","dc35b695",2113
8140,"NA","ONTARIO","LONDON","NA","6e36648",8140
2312,"NA","ONTARIO","OWEN SOUND","NA","dc35b695",2312
6999,"NA","ONTARIO","HALIBURTON","NA","6e36648",6999
8148,"NA","ONTARIO","ENGLEHART","NA","6e36648",8148
7220,"NA","ALBERTA","EDMONTON","NA","6e36648",7220
8663,"NA","NEW BRUNSWICK","DIEPPE","NA","235704e1",8663
8577,"NA","NOVA SCOTIA","TRURO","NA","235704e1",8577
8542,"NA","BRITISH COLUMBIA","NEW WESTM","NA","235704e1",8542
880,"NA","ONTARIO","TORONTO","NA","dc35b695",880
8120,"NA","ONTARIO","WINDSOR","NA","6e36648",8120
2139,"NA","ONTARIO","INNISFIL","NA","dc35b695",2139
8176,"NA","ONTARIO","STURGEON FALLS","NA","6e36648",8176
8170,"NA","ONTARIO","THUNDER BAY","NA","6e36648",8170
7314,"NA","SASKATCHEWAN","WOLSELEY","NA","6e36648",7314
8659,"NA","BRITISH COLUMBIA","WESTBANK","NA","235704e1",8659
8565,"NA","SASKATCHEWAN","SASKATOON","NA","235704e1",8565
8538,"NA","ONTARIO","RICHMOND HILL","NA","235704e1",8538
7224,"NA","ALBERTA","LACOMBE","NA","6e36648",7224
1669,"NA","ONTARIO","HANOVER","NA","dc35b695",1669
6935,"NA","ONTARIO","TORONTO","NA","6e36648",6935
7102,"NA","BRITISH COLUMBIA","COMOX","NA","6e36648",7102
6972,"NA","ONTARIO","MANOTICK","NA","6e36648",6972
240,"NA","ONTARIO","SUDBURY","NA","dc35b695",240
8558,"NA","ALBERTA","CALGARY","NA","235704e1",8558
1164,"NA","ONTARIO","OTTAWA","NA","dc35b695",1164
4861,"NA","MANITOBA","WINNIPEG","NA","dc35b695",4861
7276,"NA","ALBERTA","EDMONTON","NA","6e36648",7276
885,"NA","ONTARIO","WILLOWDALE","NA","dc35b695",885
8187,"NA","ONTARIO","OWEN SOUND","NA","6e36648",8187
7405,"NA","MANITOBA","WINNIPEG","NA","6e36648",7405
8147,"NA","ONTARIO","OTTAWA","NA","6e36648",8147
3830,"NA","ONTARIO","TORONTO","NA","dc35b695",3830
8606,"NA","ONTARIO","TORONTO","NA","235704e1",8606
8172,"NA","ONTARIO","SARNIA","NA","6e36648",8172
1736,"NA","ONTARIO","LONDON","NA","dc35b695",1736
7212,"NA","ALBERTA","LEDUC","NA","6e36648",7212
2311,"NA","ONTARIO","OWEN SOUND","NA","dc35b695",2311
8159,"NA","ONTARIO","TORONTO","NA","6e36648",8159
1172,"NA","ONTARIO","NEPEAN","NA","dc35b695",1172
6951,"NA","ONTARIO","STURGEON FALLS","NA","6e36648",6951
8201,"NA","ONTARIO","ST.CATHARINES","NA","6e36648",8201
8596,"NA","SASKATCHEWAN","SWIFT CURRENT","NA","235704e1",8596
8630,"NA","ALBERTA","CALGARY","NA","235704e1",8630
8515,"NA","ALBERTA","EDMONTON","NA","235704e1",8515
